YAM-7                   
1 60504U 24149AN  26068.71799904  .00009009  00000+0  30984-3 0  9997
2 60504  97.3828 149.4631 0001973 296.5121  63.5918 15.30304554 86835
STARLINK-32184          
1 60942U 24155U   26068.45869868 -.00002923  00000+0 -86684-4 0  9997
2 60942  53.1599 130.8751 0000992  67.7239 292.3867 15.30171337 86253
